ONEWEB-0320             
1 49190U 21083E   25042.60846582  .00000049  00000+0  92057-4 0  9998
2 49190  87.9052  73.0413 0001892  92.5455 267.5894 13.18686157165328
ONEWEB-0321             
1 49191U 21083F   25042.90298277 -.00000001  00000+0 -34073-4 0  9998
2 49191  87.9288  11.9880 0002009  87.3186 272.8177 13.20770518173390
ONEWEB-0322             
1 49192U 21083G   25042.95195292  .00000302  00000+0  79132-3 0  9993
2 49192  87.8884  57.7167 0002256  95.6334 264.5052 13.13471029166567
ONEWEB-0324             
1 49193U 21083H   25042.59422643  .00000044  00000+0  79830-4 0  9996
2 49193  87.9051  73.0240 0001879  86.0423 274.0924 13.18686621166623
ONEWEB-0325             
1 49194U 21083J   25043.13012331 -.00000012  00000+0 -62179-4 0  9992
2 49194  87.9054  72.9336 0001991  95.3470 264.7889 13.18686651166709
ONEWEB-0326             
1 49195U 21083K   25043.14434468  .00000061  00000+0  12237-3 0  9994
2 49195  87.9050  72.9238 0001501  88.9230 271.2074 13.18686689166694
ONEWEB-0327             
1 49196U 21083L   25043.14354737  .00000008  00000+0 -11789-4 0  9999
2 49196  87.9053  72.9509 0001524  94.1886 265.9420 13.18687025166713
ONEWEB-0328             
1 49197U 21083M   25042.94244326  .00000304  00000+0  79877-3 0  9998
2 49197  87.8874  57.6770 0001912  86.4804 273.6544 13.13471800166540
